start=new Date('2023-04-03T00:00:00.000Z').valueOf();
sats=[{"CENTER_NAME":"EARTH","REF_FRAME":"TEME","INCLINATION":"53.2161","SITE":"AFWTR","MEAN_ELEMENT_THEORY":"SGP4","MEAN_MOTION":"15.08844125","MEAN_MOTION_DOT":"0.00000213","MEAN_MOTION_DDOT":"0.0000000000000","COUNTRY_CODE":"US","GP_ID":"229353143","FILE":"3878419","ARG_OF_PERICENTER":"86.6685","CLASSIFICATION_TYPE":"U","RA_OF_ASC_NODE":"111.2775","APOAPSIS":"540.743","EPOCH":"2023-04-02T17:49:03.830880","PERIAPSIS":"538.722","DECAY_DATE":null,"OBJECT_TYPE":"PAYLOAD","BSTAR":"0.00003146500000","ELEMENT_SET_NO":"999","TLE_LINE2":"2 51807  53.2161 111.2775 0001461  86.6685 273.4475 15.08844125 62284","ECCENTRICITY":"0.00014610","TLE_LINE1":"1 51807U 22017AR  23092.74240545  .00000213  00000-0  31465-4 0  9999","REV_AT_EPOCH":"6228","EPHEMERIS_TYPE":"0","OBJECT_ID":"2022-017AR","SEMIMAJOR_AXIS":"6917.868","PERIOD":"95.437","RCS_SIZE":"LARGE","OBJECT_NAME":"STARLINK-3606","NORAD_CAT_ID":"51807","TIME_SYSTEM":"UTC","MEAN_ANOMALY":"273.4475","LAUNCH_DATE":"2022-02-25"},{"OBJECT_ID":"2022-017AS","EPHEMERIS_TYPE":"0","REV_AT_EPOCH":"6209","TLE_LINE1":"1 51808U 22017AS  23092.46272717  .00006256  00000-0  41066-3 0  9995","TLE_LINE2":"2 51808  53.2158 112.5296 0001359  92.3786 267.7362 15.08850092 62095","ECCENTRICITY":"0.00013590","ELEMENT_SET_NO":"999","BSTAR":"0.00041066000000","DECAY_DATE":null,"OBJECT_TYPE":"PAYLOAD","LAUNCH_DATE":"2022-02-25","MEAN_ANOMALY":"267.7362","NORAD_CAT_ID":"51808","TIME_SYSTEM":"UTC","RCS_SIZE":"LARGE","OBJECT_NAME":"STARLINK-3609","PERIOD":"95.437","SEMIMAJOR_AXIS":"6917.850","MEAN_MOTION":"15.08850092","MEAN_MOTION_DDOT":"0.0000000000000","MEAN_MOTION_DOT":"0.00006256","MEAN_ELEMENT_THEORY":"SGP4","SITE":"AFWTR","INCLINATION":"53.2158","REF_FRAME":"TEME","CENTER_NAME":"EARTH","PERIAPSIS":"538.774","APOAPSIS":"540.655","EPOCH":"2023-04-02T11:06:19.627488","CLASSIFICATION_TYPE":"U","RA_OF_ASC_NODE":"112.5296","ARG_OF_PERICENTER":"92.3786","FILE":"3878126","GP_ID":"229318927","COUNTRY_CODE":"US"},{"PERIAPSIS":"538.800","APOAPSIS":"540.677","EPOCH":"2023-04-02T17:43:46.156224","RA_OF_ASC_NODE":"111.2938","CLASSIFICATION_TYPE":"U","ARG_OF_PERICENTER":"102.3855","FILE":"3878419","GP_ID":"229352664","COUNTRY_CODE":"US","MEAN_MOTION_DOT":"-0.00000865","MEAN_MOTION_DDOT":"0.0000000000000","MEAN_MOTION":"15.08842284","MEAN_ELEMENT_THEORY":"SGP4","SITE":"AFWTR","INCLINATION":"53.2169","REF_FRAME":"TEME","CENTER_NAME":"EARTH","LAUNCH_DATE":"2022-02-25","MEAN_ANOMALY":"257.7289","TIME_SYSTEM":"UTC","NORAD_CAT_ID":"51809","OBJECT_NAME":"STARLINK-3607","RCS_SIZE":"LARGE","PERIOD":"95.437","SEMIMAJOR_AXIS":"6917.873","OBJECT_ID":"2022-017AT","REV_AT_EPOCH":"6223","EPHEMERIS_TYPE":"0","TLE_LINE1":"1 51809U 22017AT  23092.73872866 -.00000865  00000-0 -36249-4 0  9997","ECCENTRICITY":"0.00013570","TLE_LINE2":"2 51809  53.2169 111.2938 0001357 102.3855 257.7289 15.08842284 62231","ELEMENT_SET_NO":"999","BSTAR":"-0.00003624900000","DECAY_DATE":null,"OBJECT_TYPE":"PAYLOAD"},{"NORAD_CAT_ID":"51810","TIME_SYSTEM":"UTC","MEAN_ANOMALY":"274.6850","LAUNCH_DATE":"2022-02-25","PERIOD":"95.436","SEMIMAJOR_AXIS":"6917.792","OBJECT_NAME":"STARLINK-3613","RCS_SIZE":"LARGE","TLE_LINE2":"2 51810  53.2143 102.7238 0001368  85.4298 274.6850 15.08868770 62204","ECCENTRICITY":"0.00013680","TLE_LINE1":"1 51810U 22017AU  23092.42042825  .00006554  00000-0  42918-3 0  9997","EPHEMERIS_TYPE":"0","REV_AT_EPOCH":"6220","OBJECT_ID":"2022-017AU","OBJECT_TYPE":"PAYLOAD","DECAY_DATE":null,"BSTAR":"0.00042918000000","ELEMENT_SET_NO":"999","CLASSIFICATION_TYPE":"U","RA_OF_ASC_NODE":"102.7238","EPOCH":"2023-04-02T10:05:25.000800","APOAPSIS":"540.604","PERIAPSIS":"538.711","COUNTRY_CODE":"US","GP_ID":"229319429","FILE":"3878126","ARG_OF_PERICENTER":"85.4298","SITE":"AFWTR","MEAN_ELEMENT_THEORY":"SGP4","MEAN_MOTION":"15.08868770","MEAN_MOTION_DDOT":"0.0000000000000","MEAN_MOTION_DOT":"0.00006554","CENTER_NAME":"EARTH","REF_FRAME":"TEME","INCLINATION":"53.2143"},{"MEAN_ELEMENT_THEORY":"SGP4","MEAN_MOTION":"15.08849066","MEAN_MOTION_DDOT":"0.0000000000000","MEAN_MOTION_DOT":"0.00006042","SITE":"AFWTR","INCLINATION":"53.2154","CENTER_NAME":"EARTH","REF_FRAME":"TEME","EPOCH":"2023-04-02T11:11:37.594176","APOAPSIS":"540.630","PERIAPSIS":"538.805","CLASSIFICATION_TYPE":"U","RA_OF_ASC_NODE":"112.5140","FILE":"3878139","ARG_OF_PERICENTER":"98.8809","COUNTRY_CODE":"US","GP_ID":"229322995","REV_AT_EPOCH":"6219","EPHEMERIS_TYPE":"0","OBJECT_ID":"2022-017AV","TLE_LINE2":"2 51811  53.2154 112.5140 0001319  98.8809 261.2333 15.08849066 62193","ECCENTRICITY":"0.00013190","TLE_LINE1":"1 51811U 22017AV  23092.46640734  .00006042  00000-0  39727-3 0  9991","BSTAR":"0.00039727000000","ELEMENT_SET_NO":"999","OBJECT_TYPE":"PAYLOAD","DECAY_DATE":null,"LAUNCH_DATE":"2022-02-25","NORAD_CAT_ID":"51811","TIME_SYSTEM":"UTC","MEAN_ANOMALY":"261.2333","RCS_SIZE":"LARGE","OBJECT_NAME":"STARLINK-3569","SEMIMAJOR_AXIS":"6917.853","PERIOD":"95.437"},{"BSTAR":"0.00011130000000","ELEMENT_SET_NO":"999","DECAY_DATE":null,"OBJECT_TYPE":"PAYLOAD","REV_AT_EPOCH":"6225","EPHEMERIS_TYPE":"0","OBJECT_ID":"2022-017AW","ECCENTRICITY":"0.00013030","TLE_LINE2":"2 51812  53.2155 101.2905 0001303  85.9425 274.1716 15.08842696 62250","TLE_LINE1":"1 51812U 22017AW  23092.73964672  .00001484  00000-0  11130-3 0  9995","OBJECT_NAME":"STARLINK-3610","RCS_SIZE":"LARGE","SEMIMAJOR_AXIS":"6917.872","PERIOD":"95.437","LAUNCH_DATE":"2022-02-25","TIME_SYSTEM":"UTC","NORAD_CAT_ID":"51812","MEAN_ANOMALY":"274.1716","INCLINATION":"53.2155","CENTER_NAME":"EARTH","REF_FRAME":"TEME","MEAN_ELEMENT_THEORY":"SGP4","MEAN_MOTION_DDOT":"0.0000000000000","MEAN_MOTION_DOT":"0.00001484","MEAN_MOTION":"15.08842696","SITE":"AFWTR","FILE":"3878419","ARG_OF_PERICENTER":"85.9425","COUNTRY_CODE":"US","GP_ID":"229351914","APOAPSIS":"540.639","EPOCH":"2023-04-02T17:45:05.476608","PERIAPSIS":"538.836","RA_OF_ASC_NODE":"101.2905","CLASSIFICATION_TYPE":"U"},{"SITE":"AFWTR","MEAN_MOTION":"15.08851746","MEAN_MOTION_DOT":"0.00006063","MEAN_MOTION_DDOT":"0.0000000000000","MEAN_ELEMENT_THEORY":"SGP4","REF_FRAME":"TEME","CENTER_NAME":"EARTH","INCLINATION":"53.2158","CLASSIFICATION_TYPE":"U","RA_OF_ASC_NODE":"102.5892","PERIAPSIS":"538.826","APOAPSIS":"540.593","EPOCH":"2023-04-02T10:57:03.274560","GP_ID":"229318678","COUNTRY_CODE":"US","ARG_OF_PERICENTER":"91.4618","FILE":"3878126","TLE_LINE1":"1 51813U 22017AX  23092.45628790  .00006063  00000-0  39857-3 0  9997","TLE_LINE2":"2 51813  53.2158 102.5892 0001277  91.4618 268.6521 15.08851746 62213","ECCENTRICITY":"0.00012770","OBJECT_ID":"2022-017AX","REV_AT_EPOCH":"6221","EPHEMERIS_TYPE":"0","DECAY_DATE":null,"OBJECT_TYPE":"PAYLOAD","ELEMENT_SET_NO":"999","BSTAR":"0.00039857000000","MEAN_ANOMALY":"268.6521","NORAD_CAT_ID":"51813","TIME_SYSTEM":"UTC","LAUNCH_DATE":"2022-02-25","PERIOD":"95.437","SEMIMAJOR_AXIS":"6917.844","OBJECT_NAME":"STARLINK-3552","RCS_SIZE":"LARGE"},{"LAUNCH_DATE":"2022-02-25","NORAD_CAT_ID":"51814","TIME_SYSTEM":"UTC","MEAN_ANOMALY":"262.3370","OBJECT_NAME":"STARLINK-3599","RCS_SIZE":"LARGE","PERIOD":"95.438","SEMIMAJOR_AXIS":"6917.883","REV_AT_EPOCH":"6222","EPHEMERIS_TYPE":"0","OBJECT_ID":"2022-017AY","TLE_LINE2":"2 51814  53.2153 102.2155 0001230  97.7762 262.3370 15.08839308 62220","ECCENTRICITY":"0.00012300","TLE_LINE1":"1 51814U 22017AY  23092.53357003  .00000179  00000-0  29329-4 0  9999","BSTAR":"0.00002932900000","ELEMENT_SET_NO":"999","OBJECT_TYPE":"PAYLOAD","DECAY_DATE":null,"EPOCH":"2023-04-02T12:48:20.450592","APOAPSIS":"540.598","PERIAPSIS":"538.897","CLASSIFICATION_TYPE":"U","RA_OF_ASC_NODE":"102.2155","FILE":"3878126","ARG_OF_PERICENTER":"97.7762","COUNTRY_CODE":"US","GP_ID":"229319929","MEAN_ELEMENT_THEORY":"SGP4","MEAN_MOTION":"15.08839308","MEAN_MOTION_DOT":"0.00000179","MEAN_MOTION_DDOT":"0.0000000000000","SITE":"AFWTR","INCLINATION":"53.2153","CENTER_NAME":"EARTH","REF_FRAME":"TEME"},{"BSTAR":"0.00044151000000","ELEMENT_SET_NO":"999","OBJECT_TYPE":"PAYLOAD","DECAY_DATE":null,"REV_AT_EPOCH":"6222","EPHEMERIS_TYPE":"0","OBJECT_ID":"2022-017AZ","TLE_LINE2":"2 51815  53.2163 102.1982 0001230  92.8975 267.2157 15.08835100 62224","ECCENTRICITY":"0.00012300","TLE_LINE1":"1 51815U 22017AZ  23092.53724549  .00006745  00000-0  44151-3 0  9997","OBJECT_NAME":"STARLINK-3604","RCS_SIZE":"LARGE","PERIOD":"95.438","SEMIMAJOR_AXIS":"6917.895","LAUNCH_DATE":"2022-02-25","NORAD_CAT_ID":"51815","TIME_SYSTEM":"UTC","MEAN_ANOMALY":"267.2157","INCLINATION":"53.2163","CENTER_NAME":"EARTH","REF_FRAME":"TEME","MEAN_ELEMENT_THEORY":"SGP4","MEAN_MOTION":"15.08835100","MEAN_MOTION_DOT":"0.00006745","MEAN_MOTION_DDOT":"0.0000000000000","SITE":"AFWTR","FILE":"3878126","ARG_OF_PERICENTER":"92.8975","COUNTRY_CODE":"US","GP_ID":"229320168","APOAPSIS":"540.611","EPOCH":"2023-04-02T12:53:38.010336","PERIAPSIS":"538.909","CLASSIFICATION_TYPE":"U","RA_OF_ASC_NODE":"102.1982"},{"LAUNCH_DATE":"2022-02-25","MEAN_ANOMALY":"261.1432","TIME_SYSTEM":"UTC","NORAD_CAT_ID":"51816","OBJECT_NAME":"STARLINK-3603","RCS_SIZE":"LARGE","SEMIMAJOR_AXIS":"6917.872","PERIOD":"95.437","OBJECT_ID":"2022-017BA","REV_AT_EPOCH":"6230","EPHEMERIS_TYPE":"0","TLE_LINE1":"1 51816U 22017BA  23092.72860701  .00000752  00000-0  65346-4 0  9992","ECCENTRICITY":"0.00013650","TLE_LINE2":"2 51816  53.2162 101.3386 0001365  98.9714 261.1432 15.08842867 62306","ELEMENT_SET_NO":"999","BSTAR":"0.00006534600000","OBJECT_TYPE":"PAYLOAD","DECAY_DATE":null,"PERIAPSIS":"538.792","EPOCH":"2023-04-02T17:29:11.645664","APOAPSIS":"540.681","RA_OF_ASC_NODE":"101.3386","CLASSIFICATION_TYPE":"U","ARG_OF_PERICENTER":"98.9714","FILE":"3878419","GP_ID":"229352415","COUNTRY_CODE":"US","MEAN_MOTION_DDOT":"0.0000000000000","MEAN_MOTION_DOT":"0.00000752","MEAN_MOTION":"15.08842867","MEAN_ELEMENT_THEORY":"SGP4","SITE":"AFWTR","INCLINATION":"53.2162","REF_FRAME":"TEME","CENTER_NAME":"EARTH"}];
